ONEWEB-0683             
1 56719U 23068K   25288.91139609  .00000060  00000+0  12469-3 0  9990
2 56719  87.8976 307.9304 0002049  88.1694 271.9671 13.15546936117300
ONEWEB-0684             
1 56720U 23068L   25288.91931714 -.00000044  00000+0 -15092-3 0  9998
2 56720  87.8971 307.9246 0002525 127.0172 233.1190 13.15547340117132
ONEWEB-0686             
1 56721U 23068M   25288.91345022  .00000022  00000+0  24816-4 0  9999
2 56721  87.8968 277.4636 0002200  89.1486 270.9897 13.16594248119572
ONEWEB-0694             
1 56722U 23068N   25288.95621198  .00000127  00000+0  29829-3 0  9999
2 56722  87.8983 277.3906 0002250  80.0549 280.0836 13.16598593119633
ONEWEB-0696             
1 56723U 23068P   25288.80047426  .00000134  00000+0  32316-3 0  9993
2 56723  87.8967 308.0042 0001732 103.2220 256.9103 13.15548304117234
ONEWEB-0703             
1 56724U 23068Q   25288.80998269  .00000148  00000+0  35945-3 0  9990
2 56724  87.8968 307.9855 0001212 127.7605 232.3636 13.15555573117120
ONEWEB-0721             
1 56725U 23068R   25288.60764549  .00000205  00000+0  45645-3 0  9993
2 56725  86.6845 163.5117 0001599  75.5405 284.5906 13.22448267125616
ONEWEB-0015             
1 61594U 24188A   25288.47313034  .00000372  00000+0  10128-2 0  9993
2 61594  87.8817  69.8374 0001437  74.1835 285.9451 13.11415728 52381
